{"spkid": "50384507", "covariance": {"elements": [{"label": "e", "units": null, "value": ".2534921793747929", "title": "eccentricity", "sigma": 1.36292853186458e-06, "name": "e"}, {"label": "q", "name": "q", "sigma": 1.50925834692548e-06, "value": ".8269507103516708", "title": "perihelion distance", "units": "au"}, {"label": "tp", "sigma": 3.89999282395618e-05, "name": "tp", "units": "TDB", "title": "time of perihelion passage", "value": "2457846.081380256046"}, {"label": "node", "units": "deg", "title": "longitude of the ascending node", "value": "352.4776141583059", "name": "om", "sigma": 2.00744929915627e-05}, {"label": "peri", "title": "argument of perihelion", "value": "99.03299272239754", "units": "deg", "sigma": 0.000165354045521819, "name": "w"}, {"label": "i", "sigma": 5.58101639030543e-05, "name": "i", "title": "inclination", "value": "12.63344785272664", "units": "deg"}], "data": [["1.857574182970541E-12", "-2.05701073222007E-12", "8.290877015872494E-12", "2.257848511070484E-11", "2.207156535028741E-10", "6.415115121090539E-11", "-3.050500978387588E-20"], ["-2.05701073222007E-12", "2.277860757764233E-12", "-9.196213748958642E-12", "-2.500541124316748E-11", "-2.444245999341446E-10", "-7.104442587484595E-11", "3.37916592390346E-20"], ["8.290877015872494E-12", "-9.196213748958642E-12", "1.520994402690967E-9", "3.80609702541393E-10", "2.227620185952142E-9", "1.065470787556846E-9", "-7.237402093876827E-19"], ["2.257848511070484E-11", "-2.500541124316748E-11", "3.80609702541393E-10", "4.029852688682983E-10", "2.847206068895125E-9", "9.486418729877571E-10", "-4.727776480527859E-19"], ["2.207156535028741E-10", "-2.444245999341446E-10", "2.227620185952142E-9", "2.847206068895125E-9", "2.734196037043178E-8", "8.253015852089935E-9", "-4.109405975694929E-18"], ["6.415115121090539E-11", "-7.104442587484595E-11", "1.065470787556846E-9", "9.486418729877571E-10", "8.253015852089935E-9", "3.114774394885787E-9", "-1.424785686857268E-18"], ["-3.050500978387588E-20", "3.37916592390346E-20", "-7.237402093876827E-19", "-4.727776480527859E-19", "-4.109405975694929E-18", "-1.424785686857268E-18", "8.164581668495512E-28"]], "labels": ["e", "q", "tp", "node", "peri", "i", "A2"], "epoch": "2457849.5"}, "elements": [{"units": null, "value": ".2534588646559462", "title": "eccentricity", "name": "e", "sigma": "1.3632E-6", "label": "e"}, {"units": "au", "title": "semi-major axis", "value": "1.107311073141386", "name": "a", "sigma": "8.0574E-9", "label": "a"}, {"label": "q", "units": "au", "value": ".8266532657220126", "title": "perihelion distance", "sigma": "1.513E-6", "name": "q"}, {"units": "deg", "title": "inclination; angle with respect to x-y ecliptic plane", "value": "12.63111557294664", "sigma": "5.5829E-5", "name": "i", "label": "i"}, {"name": "om", "sigma": "2.0166E-5", "value": "352.4142840565658", "title": "longitude of the ascending node", "units": "deg", "label": "node"}, {"title": "argument of perihelion", "value": "99.20382235027179", "units": "deg", "sigma": ".00016435", "name": "w", "label": "peri"}, {"title": "mean anomaly", "value": "316.421732645024", "units": "deg", "sigma": "2.4515E-5", "name": "ma", "label": "M"}, {"name": "tp", "sigma": "2.8871E-5", "value": "2461252.019346958262", "title": "time of perihelion passage", "units": "TDB", "label": "tp"}, {"label": "period", "units": "d", "value": "425.6012464629689", "title": "sidereal orbital period", "name": "per", "sigma": "4.6454E-6"}, {"label": "n", "sigma": "9.2325E-9", "name": "n", "value": ".8458621843611617", "title": "mean motion", "units": "deg/d"}, {"name": "ad", "sigma": "1.01E-8", "units": "au", "title": "aphelion distance", "value": "1.387968880560758", "label": "Q"}], "epoch": "2461200.5"}